CZ-4B R/B               
1 28059U 03049C   17324.61220170  .00000044  00000-0  22392-4 0  9996
2 28059  98.5400 213.4873 0051011 129.2370 289.8898 14.52507498746398
CZ-2C R/B               
1 28222U 04012C   17324.51663698  .00001262  00000-0  80726-4 0  9992
2 28222  97.5464 278.2557 0048499  11.7000 123.8974 15.09487412744158
SL-16 R/B               
1 28353U 04021B   17324.60861337 -.00000186  00000-0 -72480-4 0  9991
2 28353  70.9975 110.4218 0006659 305.4895  54.5605 14.14196947694265
CZ-2C R/B               
1 28480U 04046B   17324.32797840  .00000037  00000-0  28918-4 0  9995
2 28480  98.1941  50.4528 0143052 123.5704 279.8945 14.25657094676463
ARIANE 5 R/B            
1 28499U 04049H   17324.86269490  .00000101  00000-0  19686-4 0  9996
2 28499  98.0714  48.7226 0093635  70.0212  44.7666 14.79862566697166
CZ-2D R/B               
1 28738U 05024B   17324.59476586  .00000659  00000-0  42799-4 0  9991
2 28738  97.4800 358.2724 0012130 178.8499 181.2761 15.11357810679417
SUZAKU (ASTRO-EII)      
1 28773U 05025A   17324.50283790  .00001471  00000-0  69886-4 0  9994
2 28773  31.3840   2.4828 0004605 117.4748 242.6368 15.16207411681115
ALOS (DAICHI)           
1 28931U 06002A   17324.82531392  .00000220  00000-0  52098-4 0  9993
2 28931  97.8323 344.2569 0001546 111.0236 249.1131 14.62424568630350
H-2A R/B                
1 28932U 06002B   17324.41603351  .00000252  00000-0  29573-4 0  9991
2 28932  98.2133 253.6368 0090046 158.7314 316.0017 14.91553519640981
AKARI (ASTRO-F)         
1 28939U 06005A   17324.57048290  .00003640  00000-0  11020-3 0  9994
2 28939  98.2337 182.6094 0104410   4.4950 355.7200 15.29730934636995
RESURS-DK 1             
1 29228U 06021A   17324.85578963  .00000239  00000-0  25462-4 0  9997
2 29228  69.9368  59.4559 0001625 123.5766 236.5550 15.02248259631629
GENESIS 1               
1 29252U 06029A   17324.86152886  .00000637  00000-0  42023-4 0  9999
2 29252  64.5028 133.7194 0032451 311.3209  48.5121 15.17059594625593
CZ-4B R/B               
1 29507U 06046C   17324.55524876  .00000292  00000-0  27675-4 0  9992
2 29507  97.7794 332.2411 0054013  77.3242 283.4012 15.00155693604434
CZ-2C R/B               
1 31114U 07010B   17324.56696971  .00000029  00000-0  32423-4 0  9993
2 31114  98.3827 218.8074 0060689 120.9703 239.7456 14.19257648549685
COSMO-SKYMED 1          
1 31598U 07023A   17324.79802924 -.00000096  00000-0 -54617-5 0  9991
2 31598  97.8867 146.2651 0001516  87.4539 272.6869 14.82153708565642
GENESIS 2               
1 31789U 07028A   17324.85003031  .00000769  00000-0  49766-4 0  9990
2 31789  64.5031 172.2650 0013044 219.8232 140.1934 15.16324003572653
COSMOS 2428             
1 31792U 07029A   17324.87104902  .00000341  00000-0  21098-3 0  9999
2 31792  70.9367  83.2686 0006544  27.6812 332.4655 14.12383544536191
SL-16 R/B               
1 31793U 07029B   17324.74580666  .00000129  00000-0  92183-4 0  9999
2 31793  70.9777  60.3064 0002772 270.7849 200.7817 14.14395050536850
CZ-4B DEB               
1 33411U 08053D   17315.40721526  .11288782  24851-5  12794-2 0  9999
2 33411  97.3632  13.7523 0007936 279.3174  80.7226 16.36985159499531
KORONAS-FOTON           
1 33504U 09003A   17324.77843130  .00000824  00000-0  42282-4 0  9993
2 33504  82.4438  77.3618 0017948 290.3668  69.5635 15.15013779485180
TIANGONG 1              
1 37820U 11053A   17324.33364583  .00057074  94610-5  17107-3 0  9999
2 37820  42.7556 316.2642 0017669 118.6389  95.1207 15.91937926352736
H-2A R/B                
1 38341U 12025E   17324.23558452  .00000260  00000-0  38188-4 0  9990
2 38341  98.4261  49.9033 0056105  17.6633 342.6513 14.83669745298019
CUSAT 2 & FALCON 9 R/B  
1 39271U 13055G   17324.15944608  .00005394  00000-0  13518-3 0  9992
2 39271  80.9671 191.8839 0625125 100.1330 267.0936 14.39348353215041
ALOS-2                  
1 39766U 14029A   17324.82029369  .00000236  00000-0  38513-4 0  9998
2 39766  97.9226  59.9024 0001476  82.6137 277.5229 14.79474115188769
SL-27 R/B               
1 40354U 14084B   17324.82031513  .00001517  00000-0  40095-4 0  9999
2 40354  74.7381 169.8222 0038280 114.0438 246.4787 15.38646114163940
ASTRO-H (HITOMI)        
1 41337U 16012A   17324.14334730  .00000312  00000-0  18517-4 0  9992
2 41337  31.0049 210.4921 0012396 141.3720 218.7803 14.98396732 96337
TIANGONG-2              
1 41765U 16057A   17324.78811071  .00005188  00000-0  68089-4 0  9999
2 41765  42.7823 144.3568 0004129 260.1307 235.1910 15.59555100 67423
SHENZHOU-11 MODULE      
1 41868U 16061G   17324.47551882  .00010640  00000-0  94559-4 0  9995
2 41868  42.7932 133.6020 0001974 134.5625 270.2670 15.68596049 57467
